25676,GLOBALSTAR M045,1999,117.36,-1.0,-,52.0,Inactive,0,LEO,Kazakhstan,Globalstar,Unknown,Unknown,Unknown,1 25676U 99019A   24159.62889297 -.00000028  00000+0  58132-3 0  9998,2 25676  51.9979 292.8194 0000910 153.0363 220.0450 12.27039765147416,12.27039765,9.1e-05,LEO
25677,GLOBALSTAR M019,1999,118.63,-1.0,-,51.99,Inactive,0,LEO,Kazakhstan,Globalstar,Unknown,Unknown,Unknown,1 25677U 99019B   24159.67599539 -.00000145  00000+0 -57924-3 0  9990,2 25677  51.9901  36.7006 0000555 341.3329  34.0931 12.13857897139853,12.13857897,5.55e-05,LEO
25678,GLOBALSTAR M044,1999,120.98,-1.0,-,52.0,Inactive,0,LEO,Kazakhstan,Globalstar,Unknown,Unknown,Unknown,1 25678U 99019C   24159.70875900 -.00000081  00000+0  42304-4 0  9999,2 25678  51.9982 301.1228 0006459  43.8367 328.7298 11.90233280126711,11.9023328,0.0006459,LEO
25679,GLOBALSTAR M042,1999,117.83,-1.0,-,52.0,Inactive,0,LEO,Kazakhstan,Globalstar,Unknown,Unknown,Unknown,1 25679U 99019D   24159.40810726 -.00000053  00000+0  36423-3 0  9995,2 25679  52.0039  28.9461 0002138 242.8206 288.2978 12.22062757139436,12.22062757,0.0002138,LEO
25770,GLOBALSTAR M025,1999,128.28,-1.0,-,51.98,Inactive,0,MEO,USA,Globalstar,Unknown,Unknown,Unknown,1 25770U 99031A   24159.67983737 -.00000070  00000+0 -81888-4 0  9999,2 25770  51.9834 306.8408 0001307 211.0284 161.6786 11.22550596 97312,11.22550596,0.0001307,MEO
25771,GLOBALSTAR M049,1999,129.48,-1.0,-,51.99,Inactive,0,MEO,USA,Globalstar,Unknown,Unknown,Unknown,1 25771U 99031B   24159.72057344 -.00000045  00000+0  71293-3 0  9991,2 25771  51.9897 322.6906 0003471 109.0719 251.0454 11.12109745 75760,11.12109745,0.0003471,MEO
25772,GLOBALSTAR M047,1999,127.22,-1.0,-,51.99,Inactive,0,LEO,USA,Globalstar,Unknown,Unknown,Unknown,1 25772U 99031C   24159.01743109 -.00000057  00000+0  33479-3 0  9992,2 25772  51.9861 357.0963 0016083 341.3593  18.6622 11.31921092428620,11.31921092,0.0016083,LEO
25773,GLOBALSTAR M052,1999,129.14,-1.0,-,51.99,Inactive,0,MEO,USA,Globalstar,Unknown,Unknown,Unknown,1 25773U 99031D   24159.54072580 -.00000045  00000+0  68612-3 0  9993,2 25773  51.9879  77.0398 0002441 284.2297 246.7431 11.15051188436713,11.15051188,0.0002441,MEO
